STARLINK-1687           
1 46541U 20070K   22175.24296147  .00000744  00000+0  68829-4 0  9992
2 46541  53.0546 116.9756 0001575  72.8697 287.2465 15.06400207 95639
STARLINK-1692           
1 46542U 20070L   22175.31115947 -.00001371  00000+0 -73166-4 0  9998
2 46542  53.0547 136.6605 0001965  59.5512 300.5671 15.06397420 95364
STARLINK-1693           
1 46543U 20070M   22175.62815036 -.00000111  00000+0  11485-4 0  9995
2 46543  53.0536 135.2312 0002055  57.0341 303.0845 15.06391942 95439
STARLINK-1694           
1 46544U 20070N   22175.22593370 -.00000620  00000+0 -22691-4 0  9993
2 46544  53.0559 122.0594 0002215  68.4465 291.6760 15.06402712 95562
STARLINK-1696           
1 46545U 20070P   22175.59867134  .00000074  00000+0  23906-4 0  9997
2 46545  53.0532 135.3788 0001692  59.4713 300.6442 15.06386177 95418
STARLINK-1697           
1 46546U 20070Q   22175.58391873 -.00000094  00000+0  12639-4 0  9993
2 46546  53.0549 135.4323 0002074  49.8894 310.2276 15.06393682 95119
STARLINK-1698           
1 46547U 20070R   22175.41342954  .00000382  00000+0  44537-4 0  9993
2 46547  53.0548 136.1906 0001732  53.1176 306.9972 15.06383975 95406
STARLINK-1699           
1 46548U 20070S   22175.62444388  .00002273  00000+0  17134-3 0  9994
2 46548  53.0536 135.2572 0001675  63.3104 296.8056 15.06417140 95438
STARLINK-1700           
1 46549U 20070T   22175.32222462 -.00000014  00000+0  17937-4 0  9993
2 46549  53.0556 136.6126 0001616  68.1829 291.9331 15.06385905 95360
STARLINK-1701           
1 46550U 20070U   22175.30747510 -.00000927  00000+0 -43292-4 0  9996
2 46550  53.0562 136.6848 0002180  49.9297 310.1883 15.06397460 95368
STARLINK-1649           
1 46552U 20070W   22175.06742484 -.00000305  00000+0 -15533-5 0  9994
2 46552  53.0541 122.7421 0001743  61.3856 298.7308 15.06396797 95548
STARLINK-1664           
1 46553U 20070X   22175.22914733  .00000504  00000+0  52741-4 0  9991
2 46553  53.0551 107.0415 0001524  63.6445 296.4700 15.06389382 95773
STARLINK-1671           
1 46554U 20070Y   22175.81199490 -.00002528  00000+0 -15084-3 0  9990
2 46554  53.0560 119.4059 0002033  90.9079 269.2143 15.06396511 95666
STARLINK-1676           
1 46556U 20070AA  22175.60603465  .00000428  00000+0  47656-4 0  9997
2 46556  53.0540 135.3343 0001814  61.4755 298.6416 15.06396899 95432
STARLINK-1679           
1 46557U 20070AB  22175.25171868  .00001059  00000+0  89998-4 0  9992
2 46557  53.0558 121.9395 0001582  67.8411 292.2746 15.06400956 95572
STARLINK-1680           
1 46558U 20070AC  22175.25908759  .00001416  00000+0  11396-3 0  9993
2 46558  53.0557 121.8809 0001596  58.1218 301.9926 15.06397200 95546
STARLINK-1681           
1 46559U 20070AD  22175.51202722 -.00000346  00000+0 -43139-5 0  9995
2 46559  53.0560 105.7509 0001460  71.7062 288.4086 15.06383385 95823
STARLINK-1706           
1 46560U 20070AE  22175.53922240  .00001051  00000+0  89416-4 0  9992
2 46560  53.0551 120.6262 0001567  60.0901 300.0244 15.06399522 95623
STARLINK-1709           
1 46561U 20070AF  22175.35767774 -.00000396  00000+0 -76892-5 0  9990
2 46561  53.0534 121.4784 0001817  58.9506 301.1661 15.06393570 95585
STARLINK-1714           
1 46562U 20070AG  22175.55532502  .00001146  00000+0  95814-4 0  9998
2 46562  53.0534 115.5540 0001701  68.0720 292.0450 15.06395913 95387
STARLINK-1730           
1 46563U 20070AH  22175.53785397 -.00001079  00000+0 -53596-4 0  9997
2 46563  53.0569 115.6550 0001590  55.2996 304.8143 15.06387273 95681
STARLINK-1733           
1 46564U 20070AJ  22175.25402788 -.00003614  00000+0 -22384-3 0  9994
2 46564  53.0539 116.9121 0001581  59.5615 300.5530 15.06402564 95642
STARLINK-1735           
1 46565U 20070AK  22175.23191709  .00000187  00000+0  31474-4 0  9992
2 46565  53.0543 117.0234 0001555  63.0398 297.0750 15.06393120 95634
STARLINK-1740           
1 46566U 20070AL  22175.34986490  .00002089  00000+0  15912-3 0  9995
2 46566  53.0547 116.4741 0002041  53.7049 306.4128 15.06397844 95658
STARLINK-1741           
1 46567U 20070AM  22175.24665117 -.00003380  00000+0 -20803-3 0  9997
2 46567  53.0535 116.9434 0001810  71.7246 288.3940 15.06413799 95649
STARLINK-1747           
1 46569U 20070AP  22175.52679245 -.00000184  00000+0  65408-5 0  9997
2 46569  53.0543 115.6870 0001596  54.3772 305.7366 15.06388594 95383
STARLINK-1748           
1 46570U 20070AQ  22175.55385192  .00009517  00000+0  64146-3 0  9991
2 46570  53.0537 115.4430 0002727  78.3173 281.8122 15.07288922 95699
STARLINK-1531           
1 46572U 20070AS  22175.29915108  .00000490  00000+0  51778-4 0  9999
2 46572  53.0535 136.7063 0001903  48.5425 311.5727 15.06401454 95363
STARLINK-1650           
1 46573U 20070AT  22175.54197473 -.00001571  00000+0 -86605-4 0  9995
2 46573  53.0551 120.6073 0001740  51.8797 308.2349 15.06386535 95616
STARLINK-1660           
1 46574U 20070AU  22175.66086610 -.00000771  00000+0 -32879-4 0  9994
2 46574  53.0555 120.0969 0001722  57.3952 302.7203 15.06398943 95639
STARLINK-1675           
1 46575U 20070AV  22175.51757450  .00000492  00000+0  51970-4 0  9997
2 46575  53.0575  95.7411 0001770  54.9082 305.2073 15.06393397 95958
STARLINK-1677           
1 46576U 20070AW  22175.78619435 -.00000067  00000+0  14447-4 0  9994
2 46576  53.0543 119.5210 0002304  55.9888 304.1319 15.06392362 95654
STARLINK-1682           
1 46577U 20070AX  22175.81567477  .00000371  00000+0  43840-4 0  9993
2 46577  53.0535 119.3985 0001793  56.3275 303.7884 15.06393310 95655
STARLINK-1683           
1 46578U 20070AY  22175.59774975 -.00000307  00000+0 -17373-5 0  9996
2 46578  53.0553 105.4271 0001586  62.6491 297.4659 15.06394485 95530
STARLINK-1705           
1 46579U 20070AZ  22175.80093304 -.00000255  00000+0  17817-5 0  9995
2 46579  53.0545 119.4613 0001681  61.7106 298.4052 15.06393098 95634
STARLINK-1708           
1 46580U 20070BA  22175.57977675 -.00001146  00000+0 -58054-4 0  9991
2 46580  53.0536 120.4491 0001518  47.7589 312.3529 15.06389699 95637
STARLINK-1712           
1 46581U 20070BB  22175.21348276  .00001421  00000+0  11430-3 0  9992
2 46581  53.0553 117.1133 0001740  61.5558 298.5606 15.06400647 95638
STARLINK-1728           
1 46582U 20070BC  22175.66317543 -.00001064  00000+0 -52550-4 0  9999
2 46582  53.0566 115.0888 0001567  65.4400 294.6753 15.06384903 95707
STARLINK-1729           
1 46583U 20070BD  22175.31484651 -.00000194  00000+0  58927-5 0  9994
2 46583  53.0542 136.6449 0001705  37.9532 322.1577 15.06401100 95360
STARLINK-1732           
1 46584U 20070BE  22175.53416524 -.00000521  00000+0 -16065-4 0  9994
2 46584  53.0549 115.6666 0001842  69.8574 290.2613 15.06403717 95685
STARLINK-1736           
1 46585U 20070BF  22175.21990945 -.00000482  00000+0 -13469-4 0  9995
2 46585  53.0547 117.0614 0001726  59.3060 300.8098 15.06393637 95637
STARLINK-1737           
1 46586U 20070BG  22175.54153604  .00000070  00000+0  23610-4 0  9995
2 46586  53.0537 115.6314 0001766  64.3923 295.7249 15.06388192 95681
STARLINK-1746           
1 46588U 20070BJ  22175.52310848 -.00003717  00000+0 -23076-3 0  9998
2 46588  53.0551 115.7169 0002174  61.2571 298.8636 15.06401273 95687
STARLINK-1749           
1 46589U 20070BK  22175.25034104 -.00000804  00000+0 -35114-4 0  9998
2 46589  53.0556 116.9428 0001321  62.7309 297.3814 15.06397942 95636
STARLINK-1755           
1 46591U 20070BM  22175.57101946  .00001002  00000+0  86185-4 0  9998
2 46591  53.0558 115.4958 0001519  64.6598 295.4549 15.06392525 95695
FLOCK 4V-18             
1 46597U 20061BG  22175.65176198  .00006358  00000+0  29177-3 0  9990
2 46597  97.4020 247.2114 0008254 106.5027 253.7116 15.20738230 94926
FLOCK 4V-19             
1 46609U 20061BH  22175.15651976  .00012691  00000+0  57766-3 0  9993
2 46609  97.3919 246.1386 0004876  97.1428 263.0362 15.20824972 94411
GAOFEN 13               
1 46610U 20071A   22175.63217172 -.00000357  00000+0  00000+0 0  9997
2 46610   0.4762 267.8482 0004311 264.8731  85.3366  1.00266559  6321
FLOCK 4V-20             
1 46612U 20061BJ  22175.74153581  .00007904  00000+0  36097-3 0  9996
2 46612  97.4026 247.1250 0008877 108.9473 251.2725 15.20819158 93996
STARLINK-1715           
1 46671U 20073B   22175.40058769 -.00000522  00000+0 -16176-4 0  9997
2 46671  53.0542 206.5032 0001633  52.2399 307.8738 15.06382353 92931
STARLINK-1716           
1 46672U 20073C   22175.48394792  .00000259  00000+0  36263-4 0  9999
2 46672  53.0556 200.8876 0001454  52.1388 307.9732 15.06393382 93028
STARLINK-1717           
1 46673U 20073D   22175.46598448 -.00000216  00000+0  43952-5 0  9990
2 46673  53.0534 216.0907 0001605  63.6204 296.4950 15.06396366 92805
STARLINK-1718           
1 46674U 20073E   22175.44339130  .00001577  00000+0  12476-3 0  9995
2 46674  53.0530 201.0728 0001508  57.6358 302.4777 15.06399898 93014
STARLINK-1720           
1 46675U 20073F   22175.37336736  .00000161  00000+0  29691-4 0  9993
2 46675  53.0530 201.3920 0001873  57.0183 303.0986 15.06390637 93007
STARLINK-1766           
1 46677U 20073H   22175.43603219  .00000475  00000+0  50796-4 0  9993
2 46677  53.0536 201.0985 0001785  51.9936 308.1214 15.06390824 93484
STARLINK-1773           
1 46679U 20073K   22175.44154591  .00000882  00000+0  78081-4 0  9999
2 46679  53.0528 181.0829 0001720  50.7175 309.3966 15.06400954 93788
STARLINK-1774           
1 46680U 20073L   22175.37751709  .00000181  00000+0  31047-4 0  9990
2 46680  53.0541 216.3733 0001580  58.1031 302.0111 15.06395673 92791
STARLINK-1775           
1 46681U 20073M   22175.81245385  .00000047  00000+0  22047-4 0  9999
2 46681  53.0538 214.4094 0001730  46.3308 313.7824 15.06392881 93339
STARLINK-1776           
1 46682U 20073N   22175.37382023  .00000844  00000+0  75546-4 0  9999
2 46682  53.0552 216.3775 0001773  49.3690 310.7453 15.06398912 92792
